SARSAT 7 (NOAA 15)      
1 25338U 98030A   19139.52384021  .00000059  00000-0  43561-4 0  9996
2 25338  98.7488 160.8412 0009831 336.8081  23.2654 14.25908318 92957
METEOSAT-8 (MSG-1)      
1 27509U 02040B   19138.99133844  .00000127  00000-0  00000+0 0  9991
2 27509   6.0419  55.6992 0002662 358.5278 220.3658  1.00273667 61314
GPS BIIR-08             
1 27663U 03005A   19138.26020030 -.00000072  00000-0  00000+0 0  9996
2 27663  56.3401 317.5359 0106900  31.9438 172.3185  2.00575569119414
GPS BIIR-11             
1 28190U 04009A   19139.01058594 -.00000095  00000-0  00000+0 0  9992
2 28190  56.2626  18.2859 0093698  80.1253  99.6843  2.00568557111107
GPS BIIR-12             
1 28361U 04023A   19138.87493411  .00000051  00000-0  00000+0 0  9993
2 28361  54.0482 191.4712 0133917 231.1433 124.3827  2.00573528109189
GPS BIIR-13             
1 28474U 04045A   19139.29911937 -.00000077  00000-0  00000+0 0  9996
2 28474  54.6991  68.9549 0191431 260.3958  42.6807  2.00559311106565
SARSAT 10 (NOAA 18)     
1 28654U 05018A   19139.52945211  .00000067  00000-0  61240-4 0  9991
2 28654  99.0986 186.0424 0013219 261.3792  98.5882 14.12424297721252
GPS BIIR-14M            
1 28874U 05038A   19139.48660285 -.00000096  00000-0  00000+0 0  9992
2 28874  56.3870  15.6162 0130610 262.1327 281.6696  2.00556025 99961
METEOSAT-9 (MSG-2)      
1 28912U 05049B   19139.16202748  .00000007  00000-0  00000+0 0  9999
2 28912   3.6052  71.2959 0002264 341.2876 245.5940  1.00269250 49140
GOES 13                 
1 29155U 06018A   19139.50844469 -.00000294  00000-0  00000+0 0  9995
2 29155   0.2679 284.4073 0012634 139.1630 296.6441  1.00274797 47599
SARSAT 11 (METOP-A)     
1 29499U 06044A   19139.49600485  .00000026  00000-0  31554-4 0  9996
2 29499  98.5768 193.5416 0000675  48.2243  60.7635 14.21533543652773
GPS BIIR-16M            
1 29601U 06052A   19139.28629508 -.00000074  00000-0  00000+0 0  9995
2 29601  56.3194 316.4123 0074427  61.1120 299.6215  2.00567393 91596
GPS BIIR-17M            
1 32260U 07047A   19137.60319149  .00000059  00000-0  00000+0 0  9998
2 32260  53.1715 187.2396 0111425  43.5299 317.4311  2.00561514 84937
GPS BIIR-18M            
1 32384U 07062A   19138.13088846 -.00000092  00000-0  00000+0 0  9996
2 32384  56.4705  16.3068 0008272  97.3667  59.7941  2.00554671 83680
SARSAT 12 (NOAA 19)     
1 33591U 09005A   19139.58100770  .00000040  00000-0  46969-4 0  9998
2 33591  99.1789 129.9780 0015009 102.1601 258.1252 14.12351964529667
GOES 14                 
1 35491U 09033A   19139.56680759 -.00000102  00000-0  00000+0 0  9999
2 35491   0.2182 103.8643 0006440 121.3893 111.2963  1.00271001 36221
GOES 15                 
1 36411U 10008A   19139.46785403  .00000046  00000-0  00000+0 0  9993
2 36411   0.1504 101.1261 0002089 345.7485 189.9811  1.00269498 33736
GLONASS-K 1             
1 37372U 11009A   19138.64066574 -.00000073  00000-0  00000+0 0  9993
2 37372  65.7269  41.0285 0008132 239.2159 291.9192  2.13107476 63973
GPS BIIF-2              
1 37753U 11036A   19138.95353366 -.00000071  00000-0  00000+0 0  9996
2 37753  55.8964  72.8970 0086744  39.1259 138.2834  2.00566129 57399
GSAT0101 (GALILEO-PFM)  
1 37846U 11060A   19138.59486441 -.00000091  00000-0  00000+0 0  9999
2 37846  56.3586  52.2034 0004597 348.2544  11.7316  1.70475704 47155
GSAT0102 (GALILEO-FM2)  
1 37847U 11060B   19138.81578817 -.00000091  00000-0  00000+0 0  9994
2 37847  56.3593  52.1965 0005489 326.6808 214.9176  1.70475696 47151
LUCH 5A                 
1 37951U 11074B   19138.58286699 -.00000052  00000-0  00000+0 0  9990
2 37951   2.4232 129.7135 0004593 264.5806 218.2358  1.00293373 27253
METEOSAT-10 (MSG-3)     
1 38552U 12035B   19139.23504394  .00000051  00000-0  00000+0 0  9992
2 38552   1.0143  19.8205 0000957  70.4626 240.2505  1.00276921 25288
SARSAT 13 (METOP-B)     
1 38771U 12049A   19138.89304398  .00000001  00000-0  20615-4 0  9997
2 38771  98.7056 198.6477 0002048  75.6750 282.5227 14.21488317345828
GPS BIIF-3              
1 38833U 12053A   19139.19350747 -.00000023  00000-0  00000+0 0  9990
2 38833  53.7852 249.6284 0081701  33.4482 327.0705  2.00558133 48466
GSAT0103 (GALILEO-FM3)  
1 38857U 12055A   19135.11749481  .00000065  00000-0  00000-0 0  9999
2 38857  54.9269 172.7808 0005113 263.8843  96.1394  1.70473712 41004
GSAT0104 (GALILEO-FM4)  
1 38858U 12055B   19137.39809575  .00000064  00000-0  00000+0 0  9991
2 38858  54.9293 172.7170 0004034 269.0859  90.9521  1.70473715 40994
GPS BIIF-4              
1 39166U 13023A   19139.05320581 -.00000094  00000-0  00000+0 0  9994
2 39166  56.0700  12.4178 0069930  26.2344 334.1672  2.00567728 44007
INSAT-3D                
1 39216U 13038B   19139.53670911 -.00000166  00000-0  00000+0 0  9994
2 39216   0.0099 319.8992 0001518 121.2755  71.0578  1.00270853 21377
GPS BIIF-5              
1 39533U 14008A   19139.04692045 -.00000031  00000-0  00000+0 0  9993
2 39533  53.9174 255.0262 0040622 192.9303 166.9621  2.00572981 38362
LUCH 5V                 
1 39727U 14023A   19139.48854065 -.00000279  00000-0  00000+0 0  9999
2 39727   1.2772 303.3913 0003914 126.5589  77.5329  1.00270270536594
GPS BIIF-6              
1 39741U 14026A   19138.83446430 -.00000072  00000-0  00000+0 0  9990
2 39741  55.8762  72.4273 0017710 294.3279  65.4606  2.00574382 36643
GPS BIIF-7              
1 40105U 14045A   19138.92590204  .00000052  00000-0  00000+0 0  9993
2 40105  54.5747 191.7574 0010100 103.1841 257.0150  2.00563003 35094
GSAT0201 (GALILEO 5)    
1 40128U 14050A   19137.69254391 -.00000119  00000-0  00000+0 0  9996
2 40128  50.5634  17.2126 1665408  86.5319 292.3052  1.85518596 32254
GSAT0202 (GALILEO 6)    
1 40129U 14050B   19135.80171573 -.00000113  00000-0  00000+0 0  9992
2 40129  50.6071  16.3104 1664534  87.3308 291.5360  1.85519188 32412
GPS BIIF-8              
1 40294U 14068A   19139.28974214  .00000025  00000-0  00000+0 0  9994
2 40294  55.1733 132.6015 0020439  28.0481 332.0566  2.00550126 33321
GLONASS-K 2             
1 40315U 14075A   19139.09033256 -.00000039  00000-0  00000+0 0  9993
2 40315  64.0566 280.7162 0015397 203.2545  57.6554  2.13098595 34746
GPS BIIF-9              
1 40534U 15013A   19139.43280707 -.00000075  00000-0  00000+0 0  9992
2 40534  54.5276 311.0988 0037023   6.4054 353.6216  2.00571486 30395
GSAT0203 (GALILEO 7)    
1 40544U 15017A   19137.78781660 -.00000091  00000-0  00000+0 0  9995
2 40544  56.1497  52.4153 0003192 281.9285  78.0287  1.70474650 25756
GSAT0204 (GALILEO 8)    
1 40545U 15017B   19136.98324681 -.00000091  00000-0  00000+0 0  9993
2 40545  56.1554  52.4519 0000710 289.4737  70.5089  1.70475067 25744
GPS BIIF-10             
1 40730U 15033A   19139.09344655 -.00000095  00000-0  00000+0 0  9999
2 40730  55.5951  11.7693 0044697 343.7577  16.1476  2.00556179 28144
METEOSAT-11 (MSG-4)     
1 40732U 15034A   19139.25027597 -.00000007  00000-0  00000+0 0  9996
2 40732   0.8471 214.3098 0000658 192.7465 280.0082  1.00280558 14103
GSAT0205 (GALILEO 9)    
1 40889U 15045A   19136.64021320 -.00000055  00000-0  00000-0 0  9993
2 40889  56.4723 293.0332 0003459  40.1235 319.8587  1.70475145 22881
GSAT0206 (GALILEO 10)   
1 40890U 15045B   19136.27332422 -.00000054  00000-0  00000-0 0  9991
2 40890  56.4707 293.0398 0001935  55.9089 304.0678  1.70475103 22909
GPS BIIF-11             
1 41019U 15062A   19139.14185910  .00000026  00000-0  00000+0 0  9998
2 41019  55.1746 132.4220 0046542 208.2698 151.4728  2.00564696 25963
ELEKTRO-L 2             
1 41105U 15074A   19139.17659588 -.00000107  00000-0  00000+0 0  9998
2 41105   0.2828 111.1699 0002785 311.8033 313.1798  1.00271896 12595
GSAT0209 (GALILEO 12)   
1 41174U 15079A   19135.27143848  .00000066  00000-0  00000+0 0  9996
2 41174  54.9397 172.4709 0006230 296.6890  63.3295  1.70473696 21203
GSAT0208 (GALILEO 11)   
1 41175U 15079B   19138.42417397  .00000060  00000-0  00000+0 0  9994
2 41175  54.9409 172.3839 0005402 295.7260  64.2992  1.70473843 21266
GPS BIIF-12             
1 41328U 16007A   19139.23755647  .00000049  00000-0  00000+0 0  9996
2 41328  54.8188 192.1266 0031915 219.8189 140.0323  2.00573279 24024
GSAT0211 (GALILEO 14)   
1 41549U 16030A   19139.13307282 -.00000057  00000-0  00000+0 0  9994
2 41549  56.6104 292.7775 0001200 329.7662  30.1788  1.70474983 18564
GSAT0210 (GALILEO 13)   
1 41550U 16030B   19138.83958104 -.00000058  00000-0  00000+0 0  9998
2 41550  56.6101 292.7874 0001145 225.2030 134.7395  1.70475148 18558
INSAT-3DR               
1 41752U 16054A   19139.56033469 -.00000087  00000-0  00000+0 0  9999
2 41752   0.1178  97.5169 0010242 182.8229 232.2997  1.00272628  9872
GSAT0207 (GALILEO 15)   
1 41859U 16069A   19137.32438277  .00000064  00000-0  00000+0 0  9995
2 41859  54.6004 172.8763 0006159 286.7960  73.2210  1.70473641 15511
GSAT0212 (GALILEO 16)   
1 41860U 16069B   19138.93756285  .00000056  00000-0  00000+0 0  9998
2 41860  54.5983 172.8312 0005013 300.3732  59.6565  1.70473657 15569
GSAT0213 (GALILEO 17)   
1 41861U 16069C   19138.13051425  .00000060  00000-0  00000+0 0  9990
2 41861  54.6006 172.8569 0005359 270.6383  89.3828  1.70473738 15556
GSAT0214 (GALILEO 18)   
1 41862U 16069D   19135.93106393  .00000066  00000-0  00000+0 0  9997
2 41862  54.5986 172.9141 0004532 274.1765  85.8558  1.70473706 15506
GOES 16                 
1 41866U 16071A   19139.51627372 -.00000259  00000-0  00000+0 0  9992
2 41866   0.0042  51.6297 0001009  37.9916 257.9491  1.00272613  9185
GSAT-17                 
1 42815U 17040B   19139.07150222 -.00000269  00000-0  00000+0 0  9991
2 42815   0.0388 267.7989 0002990  15.8900  71.9932  1.00273955  6944
GSAT0215 (GALILEO 19)   
1 43055U 17079A   19138.17881223 -.00000058  00000-0  00000+0 0  9998
2 43055  56.5859 292.6538 0001095 188.0596 171.8905  1.70474213  8888
GSAT0216 (GALILEO 20)   
1 43056U 17079B   19137.88526332 -.00000058  00000-0  00000+0 0  9993
2 43056  56.5863 292.6613 0002356 243.2773 116.6510  1.70474260  8869
GSAT0217 (GALILEO 21)   
1 43057U 17079C   19138.69184236 -.00000058  00000-0  00000+0 0  9997
2 43057  56.5838 292.6406 0001623 261.7396  98.1936  1.70474256  8898
GSAT0218 (GALILEO 22)   
1 43058U 17079D   19138.91179129 -.00000058  00000-0  00000+0 0  9998
2 43058  56.5838 292.6319 0002923 241.1076 118.8148  1.70474299  8895
GOES 17                 
1 43226U 18022A   19139.57968903  .00000087  00000-0  00000+0 0  9994
2 43226   0.0375 103.0820 0002522 312.3655 252.9946  1.00271758  4501
GSAT0221 (GALILEO 25)   
1 43564U 18060A   19137.05462116 -.00000091  00000-0  00000+0 0  9993
2 43564  56.5406  51.9581 0004527 293.7343  66.2098  1.70475532  5053
GSAT0222 (GALILEO 26)   
1 43565U 18060B   19136.10136004 -.00000089  00000-0  00000+0 0  9990
2 43565  56.5422  51.9833 0004611 302.4415  57.5036  1.70475563  5075
GSAT0219 (GALILEO 23)   
1 43566U 18060C   19136.90788452 -.00000090  00000-0  00000+0 0  9991
2 43566  56.5431  51.9625 0004121 299.9295  60.0209  1.70475409  5066
GSAT0220 (GALILEO 24)   
1 43567U 18060D   19138.88751640 -.00000091  00000-0  00000+0 0  9991
2 43567  56.5444  51.9079 0004158 299.8629  60.0946  1.70475509  5074
